$$SOE
2461288.500000000, A.D. 2026-Sep-05 00:00:00.0000, 4.938007162709054E+08, -1.754996470025668E+08, -3.154576460710087E+07,
2461295.500000000, A.D. 2026-Sep-12 00:00:00.0000, 4.961158201479803E+08, -1.667607687594136E+08, -3.032704440935166E+07,
2461302.500000000, A.D. 2026-Sep-19 00:00:00.0000, 4.982638133277491E+08, -1.579657418872454E+08, -2.909810772174328E+07,
2461309.500000000, A.D. 2026-Sep-26 00:00:00.0000, 5.002432418288075E+08, -1.491172998206516E+08, -2.785932591545244E+07,
2461316.500000000, A.D. 2026-Oct-03 00:00:00.0000, 5.020526808338858E+08, -1.402182135969380E+08, -2.661107610274908E+07,
2461323.500000000, A.D. 2026-Oct-10 00:00:00.0000, 5.036907354775879E+08, -1.312712921460352E+08, -2.535374119935799E+07,
2461330.500000000, A.D. 2026-Oct-17 00:00:00.0000, 5.051560416367407E+08, -1.222793826482195E+08, -2.408770999030268E+07,
2461337.500000000, A.D. 2026-Oct-24 00:00:00.0000, 5.064472667497782E+08, -1.132453709806120E+08, -2.281337720316093E+07,
2461344.500000000, A.D. 2026-Oct-31 00:00:00.0000, 5.075631107660546E+08, -1.041721823181876E+08, -2.153114360303791E+07,
2461351.500000000, A.D. 2026-Nov-07 00:00:00.0000, 5.085023075654570E+08, -9.506278181452888E+07, -2.024141613400370E+07,
2461358.500000000, A.D. 2026-Nov-14 00:00:00.0000, 5.092636270499212E+08, -8.592017447357979E+07, -1.894460805247103E+07,
2461365.500000000, A.D. 2026-Nov-21 00:00:00.0000, 5.098458760967656E+08, -7.674740352888528E+07, -1.764113883008765E+07,
2461372.500000000, A.D. 2026-Nov-28 00:00:00.0000, 5.102478973776850E+08, -6.754755033771652E+07, -1.633143397991059E+07,
2461379.500000000, A.D. 2026-Dec-05 00:00:00.0000, 5.104685696628674E+08, -5.832373644550145E+07, -1.501592519097209E+07,
2461386.500000000, A.D. 2026-Dec-12 00:00:00.0000, 5.105068097747267E+08, -4.907912470731746E+07, -1.369505053155859E+07,
2461393.500000000, A.D. 2026-Dec-19 00:00:00.0000, 5.103615743046860E+08, -3.981691945760518E+07, -1.236925454702385E+07,
2461400.500000000, A.D. 2026-Dec-26 00:00:00.0000, 5.100318609515504E+08, -3.054036659402242E+07, -1.103898830950117E+07,
2461407.500000000, A.D. 2027-Jan-02 00:00:00.0000, 5.095167097578950E+08, -2.125275376429477E+07, -9.704709459948111E+06,
2461414.500000000, A.D. 2027-Jan-09 00:00:00.0000, 5.088152043615850E+08, -1.195741063377965E+07, -8.366882251168000E+06,
2461421.500000000, A.D. 2027-Jan-16 00:00:00.0000, 5.079264732975298E+08, -2.657709222740505E+06, -7.025977593926724E+06,
2461428.500000000, A.D. 2027-Jan-23 00:00:00.0000, 5.068496913951257E+08, 6.642935649246148E+06, -5.682473113257594E+06,
2461435.500000000, A.D. 2027-Jan-30 00:00:00.0000, 5.055840814582043E+08, 1.594106576606742E+07, -4.336853235776918E+06,
2461442.500000000, A.D. 2027-Feb-06 00:00:00.0000, 5.041289166504958E+08, 2.523317910726547E+07, -2.989609318958465E+06,
2461449.500000000, A.D. 2027-Feb-13 00:00:00.0000, 5.024835231242432E+08, 3.451573085253599E+07, -1.641239680224897E+06,
2461456.500000000, A.D. 2027-Feb-20 00:00:00.0000, 5.006472805281393E+08, 4.378513501134770E+07, -2.922493733342327E+05,
2461463.500000000, A.D. 2027-Feb-27 00:00:00.0000, 4.986196217914974E+08, 5.303776346639992E+07, 1.056849897534270E+06,
2461470.500000000, A.D. 2027-Mar-06 00:00:00.0000, 4.964000352016824E+08, 6.226994435579289E+07, 2.405539606432058E+06,
2461477.500000000, A.D. 2027-Mar-13 00:00:00.0000, 4.939880671734317E+08, 7.147796184694342E+07, 3.753294291532133E+06,
2461484.500000000, A.D. 2027-Mar-20 00:00:00.0000, 4.913833245805933E+08, 8.065805647141233E+07, 5.099581533974834E+06,
2461491.500000000, A.D. 2027-Mar-27 00:00:00.0000, 4.885854768524089E+08, 8.980642547539116E+07, 6.443861966664936E+06,
2461498.500000000, A.D. 2027-Apr-03 00:00:00.0000, 4.855942580371433E+08, 9.891922314188330E+07, 7.785589290939637E+06,
2461505.500000000, A.D. 2027-Apr-10 00:00:00.0000, 4.824094688940410E+08, 1.079925611116052E+08, 9.124210297868297E+06,
2461512.500000000, A.D. 2027-Apr-17 00:00:00.0000, 4.790309790353557E+08, 1.170225086924687E+08, 1.045916489154922E+07,
2461519.500000000, A.D. 2027-Apr-24 00:00:00.0000, 4.754587291974077E+08, 1.260050930997726E+08, 1.178988610268109E+07,
2461526.500000000, A.D. 2027-May-01 00:00:00.0000, 4.716927339399363E+08, 1.349362996589739E+08, 1.311580006783976E+07,
2461533.500000000, A.D. 2027-May-08 00:00:00.0000, 4.677330850797215E+08, 1.438120727231596E+08, 1.443632600800534E+07,
2461540.500000000, A.D. 2027-May-15 00:00:00.0000, 4.635799543591838E+08, 1.526283182633598E+08, 1.575087642223663E+07,
2461547.500000000, A.D. 2027-May-22 00:00:00.0000, 4.592335937857208E+08, 1.613809055456482E+08, 1.705885742911306E+07,
2461554.500000000, A.D. 2027-May-29 00:00:00.0000, 4.546943369974202E+08, 1.700656664302160E+08, 1.835966882893221E+07,
2461561.500000000, A.D. 2027-Jun-05 00:00:00.0000, 4.499626025360799E+08, 1.786783954271287E+08, 1.965270406191569E+07,
2461568.500000000, A.D. 2027-Jun-12 00:00:00.0000, 4.450388970151597E+08, 1.872148509452605E+08, 2.093735028242362E+07,
2461575.500000000, A.D. 2027-Jun-19 00:00:00.0000, 4.399238178475898E+08, 1.956707568052521E+08, 2.221298850390351E+07,
2461582.500000000, A.D. 2027-Jun-26 00:00:00.0000, 4.346180558095844E+08, 2.040418037615611E+08, 2.347899376855615E+07,
2461589.500000000, A.D. 2027-Jul-03 00:00:00.0000, 4.291223975699970E+08, 2.123236510482666E+08, 2.473473533143000E+07,
2461596.500000000, A.D. 2027-Jul-10 00:00:00.0000, 4.234377282196428E+08, 2.205119279631949E+08, 2.597957685752051E+07,
2461603.500000000, A.D. 2027-Jul-17 00:00:00.0000, 4.175650338340365E+08, 2.286022354567685E+08, 2.721287662659897E+07,
2461610.500000000, A.D. 2027-Jul-24 00:00:00.0000, 4.115054042223495E+08, 2.365901476677190E+08, 2.843398772745959E+07,
2461617.500000000, A.D. 2027-Jul-31 00:00:00.0000, 4.052600362696453E+08, 2.444712136456546E+08, 2.964225822411881E+07,
2461624.500000000, A.D. 2027-Aug-07 00:00:00.0000, 3.988302376654316E+08, 2.522409604158639E+08, 3.083703140721516E+07,
2461631.500000000, A.D. 2027-Aug-14 00:00:00.0000, 3.922174287091791E+08, 2.598948971379754E+08, 3.201764632171255E+07,
2461638.500000000, A.D. 2027-Aug-21 00:00:00.0000, 3.854231428052511E+08, 2.674285170012638E+08, 3.318343824047491E+07,
2461645.500000000, A.D. 2027-Aug-28 00:00:00.0000, 3.784490290732587E+08, 2.748372980645086E+08, 3.433373886816877E+07,
2461652.500000000, A.D. 2027-Sep-04 00:00:00.0000, 3.712968558844305E+08, 2.821167055462050E+08, 3.546787658868933E+07,
2461659.500000000, A.D. 2027-Sep-11 00:00:00.0000, 3.639685139197868E+08, 2.892621949083545E+08, 3.658517683052497E+07,
2461666.500000000, A.D. 2027-Sep-18 00:00:00.0000, 3.564660188747376E+08, 2.962692150883940E+08, 3.768496248524097E+07,
2461673.500000000, A.D. 2027-Sep-25 00:00:00.0000, 3.487915140301050E+08, 3.031332118060941E+08, 3.876655435222289E+07,
2461680.500000000, A.D. 2027-Oct-02 00:00:00.0000, 3.409472727552246E+08, 3.098496309771433E+08, 3.982927160547729E+07,
2461687.500000000, A.D. 2027-Oct-09 00:00:00.0000, 3.329357009557009E+08, 3.164139222327394E+08, 4.087243228046995E+07,
2461694.500000000, A.D. 2027-Oct-16 00:00:00.0000, 3.247593395186586E+08, 3.228215424937915E+08, 4.189535377113919E+07,
2461701.500000000, A.D. 2027-Oct-23 00:00:00.0000, 3.164208670048503E+08, 3.290679595971253E+08, 4.289735331322135E+07,
2461708.500000000, A.D. 2027-Oct-30 00:00:00.0000, 3.079231029518024E+08, 3.351486565859910E+08, 4.387774846972410E+07,
2461715.500000000, A.D. 2027-Nov-06 00:00:00.0000, 2.992690106122987E+08, 3.410591377924283E+08, 4.483585781727791E+07,
2461722.500000000, A.D. 2027-Nov-13 00:00:00.0000, 2.904616971274108E+08, 3.467949346348431E+08, 4.577100184563087E+07,
2461729.500000000, A.D. 2027-Nov-20 00:00:00.0000, 2.815044140227745E+08, 3.523516089471610E+08, 4.668250362603734E+07,
2461736.500000000, A.D. 2027-Nov-27 00:00:00.0000, 2.724005596335467E+08, 3.577247568032732E+08, 4.756968934241545E+07,
2461743.500000000, A.D. 2027-Dec-04 00:00:00.0000, 2.631536814192294E+08, 3.629100137478405E+08, 4.843188894506605E+07,
2461750.500000000, A.D. 2027-Dec-11 00:00:00.0000, 2.537674776020253E+08, 3.679030604673709E+08, 4.926843689846218E+07,
2461757.500000000, A.D. 2027-Dec-18 00:00:00.0000, 2.442457983886491E+08, 3.726996285601805E+08, 5.007867297012207E+07,
2461764.500000000, A.D. 2027-Dec-25 00:00:00.0000, 2.345926469128244E+08, 3.772955063997505E+08, 5.086194304635821E+07,
2461771.500000000, A.D. 2028-Jan-01 00:00:00.0000, 2.248121799251232E+08, 3.816865451014463E+08, 5.161759997209890E+07,
$$EOE